49289,ONEWEB-0363,2021,109.03,148.0,+,87.93,Active,1,LEO,Russia,UK,Commercial,Communications,Soyuz,1 49289U 21090L   24279.39833769  .00000125  00000+0  27637-3 0  9991,2 49289  87.9274  37.7214 0001265 100.1599 259.9677 13.20773280149321,13.2077328,0.0001265,LEO
49290,ONEWEB-0364,2021,109.03,148.0,+,87.93,Active,1,LEO,Russia,UK,Commercial,Communications,Soyuz,1 49290U 21090M   24279.58771892  .00000386  00000+0  91707-3 0  9990,2 49290  87.9275  37.7101 0001680 103.8039 256.3281 13.20771615150479,13.20771615,0.000168,LEO
49291,ONEWEB-0365,2021,109.11,148.0,+,87.91,Active,1,LEO,Russia,UK,Commercial,Communications,Soyuz,1 49291U 21090N   24279.46024686  .00000066  00000+0  13217-3 0  9995,2 49291  87.9122  68.2112 0001791 105.1349 254.9982 13.19724202145973,13.19724202,0.0001791,LEO
49292,ONEWEB-0366,2021,109.55,148.0,+,87.9,Active,1,LEO,Russia,UK,Commercial,Communications,Soyuz,1 49292U 21090P   24279.45652425  .00000285  00000+0  73388-3 0  9991,2 49292  87.8989  52.9521 0001574  98.9728 261.1580 13.14496549147440,13.14496549,0.0001574,LEO
49293,ONEWEB-0367,2021,109.03,148.0,+,87.93,Active,1,LEO,Russia,UK,Commercial,Communications,Soyuz,1 49293U 21090Q   24279.39676346  .00000179  00000+0  40925-3 0  9996,2 49293  87.9274  37.7167 0001835 103.5866 256.5471 13.20773733149317,13.20773733,0.0001835,LEO
49294,ONEWEB-0368,2021,109.03,148.0,+,87.93,Active,1,LEO,Russia,UK,Commercial,Communications,Soyuz,1 49294U 21090R   24279.36991464  .00000146  00000+0  32749-3 0  9994,2 49294  87.9273  37.7528 0001829 130.4297 229.6996 13.20770259150469,13.20770259,0.0001829,LEO
49295,ONEWEB-0369,2021,109.11,148.0,+,87.91,Active,1,LEO,Russia,UK,Commercial,Communications,Soyuz,1 49295U 21090S   24279.45552172  .00000066  00000+0  13130-3 0  9998,2 49295  87.9129  68.2223 0001716  95.4149 264.7179 13.19725748145965,13.19725748,0.0001716,LEO
49296,ONEWEB-0370,2021,109.03,148.0,+,87.93,Active,1,LEO,Russia,UK,Commercial,Communications,Soyuz,1 49296U 21090T   24279.55773183  .00000191  00000+0  43876-3 0  9996,2 49296  87.9274  37.6890 0001892  90.8151 269.3199 13.20770585149377,13.20770585,0.0001892,LEO
